CCSDS_OMM_VERS = 2.0
CREATION_DATE  = 
ORIGINATOR     = 

OBJECT_NAME    = SL-14 R/B
OBJECT_ID      = 1991-042B
CENTER_NAME    = EARTH
REF_FRAME      = TEME
TIME_SYSTEM    = UTC
MEAN_ELEMENT_THEORY = SGP/SGP4

EPOCH          = 2026-01-27T08:44:02.789952
MEAN_MOTION    = 14.81789744
ECCENTRICITY   = .00176246
INCLINATION    = 82.4910
RA_OF_ASC_NODE = 258.9440
ARG_OF_PERICENTER = 21.7696
MEAN_ANOMALY   = 338.4263

EPHEMERIS_TYPE = 0
CLASSIFICATION_TYPE = U
NORAD_CAT_ID   = 21423
ELEMENT_SET_NO = 999
REV_AT_EPOCH   = 84695
BSTAR          = .7805649E-4
MEAN_MOTION_DOT = .641E-5
MEAN_MOTION_DDOT = 0

CCSDS_OMM_VERS = 2.0
CREATION_DATE  = 
ORIGINATOR     = 

OBJECT_NAME    = ERS-1
OBJECT_ID      = 1991-050A
CENTER_NAME    = EARTH
REF_FRAME      = TEME
TIME_SYSTEM    = UTC
MEAN_ELEMENT_THEORY = SGP/SGP4

EPOCH          = 2026-01-27T18:07:08.685696
MEAN_MOTION    = 14.39412462
ECCENTRICITY   = .0031337
INCLINATION    = 98.7897
RA_OF_ASC_NODE = 44.9606
ARG_OF_PERICENTER = 325.3766
MEAN_ANOMALY   = 34.5380

EPHEMERIS_TYPE = 0
CLASSIFICATION_TYPE = U
NORAD_CAT_ID   = 21574
ELEMENT_SET_NO = 999
REV_AT_EPOCH   = 80984
BSTAR          = .21119E-3
MEAN_MOTION_DOT = .614E-5
MEAN_MOTION_DDOT = 0

CCSDS_OMM_VERS = 2.0
CREATION_DATE  = 
ORIGINATOR     = 

OBJECT_NAME    = ARIANE 40 R/B
OBJECT_ID      = 1991-050F
CENTER_NAME    = EARTH
REF_FRAME      = TEME
TIME_SYSTEM    = UTC
MEAN_ELEMENT_THEORY = SGP/SGP4

EPOCH          = 2026-01-27T15:01:11.030304
MEAN_MOTION    = 14.42860658
ECCENTRICITY   = .0003097
INCLINATION    = 98.2098
RA_OF_ASC_NODE = 81.3864
ARG_OF_PERICENTER = 176.4329
MEAN_ANOMALY   = 183.6884

EPHEMERIS_TYPE = 0
CLASSIFICATION_TYPE = U
NORAD_CAT_ID   = 21610
ELEMENT_SET_NO = 999
REV_AT_EPOCH   = 81307
BSTAR          = .18379E-3
MEAN_MOTION_DOT = .572E-5
MEAN_MOTION_DDOT = 0

CCSDS_OMM_VERS = 2.0
CREATION_DATE  = 
ORIGINATOR     = 

OBJECT_NAME    = INTERCOSMOS 25
OBJECT_ID      = 1991-086A
CENTER_NAME    = EARTH
REF_FRAME      = TEME
TIME_SYSTEM    = UTC
MEAN_ELEMENT_THEORY = SGP/SGP4

EPOCH          = 2026-01-27T18:55:27.631200
MEAN_MOTION    = 12.11888660
ECCENTRICITY   = .1486263
INCLINATION    = 82.6092
RA_OF_ASC_NODE = 334.7250
ARG_OF_PERICENTER = 205.0671
MEAN_ANOMALY   = 147.0522

EPHEMERIS_TYPE = 0
CLASSIFICATION_TYPE = U
NORAD_CAT_ID   = 21819
ELEMENT_SET_NO = 999
REV_AT_EPOCH   = 49173
BSTAR          = .38355E-3
MEAN_MOTION_DOT = .1948E-4
MEAN_MOTION_DDOT = 0

CCSDS_OMM_VERS = 2.0
CREATION_DATE  = 
ORIGINATOR     = 

OBJECT_NAME    = SL-8 R/B
OBJECT_ID      = 1992-008B
CENTER_NAME    = EARTH
REF_FRAME      = TEME
TIME_SYSTEM    = UTC
MEAN_ELEMENT_THEORY = SGP/SGP4

EPOCH          = 2026-01-27T16:51:37.247616
MEAN_MOTION    = 13.75968568
ECCENTRICITY   = .0033369
INCLINATION    = 82.9283
RA_OF_ASC_NODE = 298.2661
ARG_OF_PERICENTER = 248.6605
MEAN_ANOMALY   = 138.3604

EPHEMERIS_TYPE = 0
CLASSIFICATION_TYPE = U
NORAD_CAT_ID   = 21876
ELEMENT_SET_NO = 999
REV_AT_EPOCH   = 70378
BSTAR          = .70948E-4
MEAN_MOTION_DOT = .84E-6
MEAN_MOTION_DDOT = 0

CCSDS_OMM_VERS = 2.0
CREATION_DATE  = 
ORIGINATOR     = 

OBJECT_NAME    = SL-8 R/B
OBJECT_ID      = 1992-020B
CENTER_NAME    = EARTH
REF_FRAME      = TEME
TIME_SYSTEM    = UTC
MEAN_ELEMENT_THEORY = SGP/SGP4

EPOCH          = 2026-01-27T20:00:14.916672
MEAN_MOTION    = 13.75542401
ECCENTRICITY   = .0029942
INCLINATION    = 82.9311
RA_OF_ASC_NODE = 184.0883
ARG_OF_PERICENTER = 53.5350
MEAN_ANOMALY   = 110.6381

EPHEMERIS_TYPE = 0
CLASSIFICATION_TYPE = U
NORAD_CAT_ID   = 21938
ELEMENT_SET_NO = 999
REV_AT_EPOCH   = 69551
BSTAR          = .18797E-3
MEAN_MOTION_DOT = .197E-5
MEAN_MOTION_DDOT = 0

CCSDS_OMM_VERS = 2.0
CREATION_DATE  = 
ORIGINATOR     = 

OBJECT_NAME    = USA 81
OBJECT_ID      = 1992-023A
CENTER_NAME    = EARTH
REF_FRAME      = TEME
TIME_SYSTEM    = UTC
MEAN_ELEMENT_THEORY = SGP/SGP4

EPOCH          = 2026-01-27T19:00:12.497184
MEAN_MOTION    = 14.32350991
ECCENTRICITY   = .0002261
INCLINATION    = 85.0115
RA_OF_ASC_NODE = 155.0208
ARG_OF_PERICENTER = 112.5388
MEAN_ANOMALY   = 247.6044

EPHEMERIS_TYPE = 0
CLASSIFICATION_TYPE = U
NORAD_CAT_ID   = 21949
ELEMENT_SET_NO = 999
REV_AT_EPOCH   = 8893
BSTAR          = .13096E-3
MEAN_MOTION_DOT = .373E-5
MEAN_MOTION_DDOT = 0

CCSDS_OMM_VERS = 2.0
CREATION_DATE  = 
ORIGINATOR     = 

OBJECT_NAME    = COSMOS 2219
OBJECT_ID      = 1992-076A
CENTER_NAME    = EARTH
REF_FRAME      = TEME
TIME_SYSTEM    = UTC
MEAN_ELEMENT_THEORY = SGP/SGP4

EPOCH          = 2026-01-27T15:13:07.768416
MEAN_MOTION    = 14.14080207
ECCENTRICITY   = .0020768
INCLINATION    = 71.0607
RA_OF_ASC_NODE = 103.8986
ARG_OF_PERICENTER = 264.0753
MEAN_ANOMALY   = 95.8002

EPHEMERIS_TYPE = 0
CLASSIFICATION_TYPE = U
NORAD_CAT_ID   = 22219
ELEMENT_SET_NO = 999
REV_AT_EPOCH   = 71257
BSTAR          = -.84445E-4
MEAN_MOTION_DOT = -.208E-5
MEAN_MOTION_DDOT = 0

CCSDS_OMM_VERS = 2.0
CREATION_DATE  = 
ORIGINATOR     = 

OBJECT_NAME    = SL-16 R/B
OBJECT_ID      = 1992-076B
CENTER_NAME    = EARTH
REF_FRAME      = TEME
TIME_SYSTEM    = UTC
MEAN_ELEMENT_THEORY = SGP/SGP4

EPOCH          = 2026-01-27T16:07:37.152192
MEAN_MOTION    = 14.16850371
ECCENTRICITY   = .0012249
INCLINATION    = 70.9991
RA_OF_ASC_NODE = 274.7785
ARG_OF_PERICENTER = 167.7919
MEAN_ANOMALY   = 222.3938

EPHEMERIS_TYPE = 0
CLASSIFICATION_TYPE = U
NORAD_CAT_ID   = 22220
ELEMENT_SET_NO = 999
REV_AT_EPOCH   = 71602
BSTAR          = .1308E-4
MEAN_MOTION_DOT = -.22E-6
MEAN_MOTION_DDOT = 0

CCSDS_OMM_VERS = 2.0
CREATION_DATE  = 
ORIGINATOR     = 

OBJECT_NAME    = COSMOS 2221
OBJECT_ID      = 1992-080A
CENTER_NAME    = EARTH
REF_FRAME      = TEME
TIME_SYSTEM    = UTC
MEAN_ELEMENT_THEORY = SGP/SGP4

EPOCH          = 2026-01-27T18:32:46.417344
MEAN_MOTION    = 14.96017110
ECCENTRICITY   = .0013841
INCLINATION    = 82.5063
RA_OF_ASC_NODE = 318.2618
ARG_OF_PERICENTER = 337.2879
MEAN_ANOMALY   = 22.7728

EPHEMERIS_TYPE = 0
CLASSIFICATION_TYPE = U
NORAD_CAT_ID   = 22236
ELEMENT_SET_NO = 999
REV_AT_EPOCH   = 77467
BSTAR          = .30188E-3
MEAN_MOTION_DOT = .3417E-4
MEAN_MOTION_DDOT = 0

CCSDS_OMM_VERS = 2.0
CREATION_DATE  = 
ORIGINATOR     = 

OBJECT_NAME    = SL-16 R/B
OBJECT_ID      = 1992-093B
CENTER_NAME    = EARTH
REF_FRAME      = TEME
TIME_SYSTEM    = UTC
MEAN_ELEMENT_THEORY = SGP/SGP4

EPOCH          = 2026-01-27T14:37:32.001888
MEAN_MOTION    = 14.15443674
ECCENTRICITY   = .0004662
INCLINATION    = 71.0218
RA_OF_ASC_NODE = 90.5081
ARG_OF_PERICENTER = 337.6636
MEAN_ANOMALY   = 22.4284

EPHEMERIS_TYPE = 0
CLASSIFICATION_TYPE = U
NORAD_CAT_ID   = 22285
ELEMENT_SET_NO = 999
REV_AT_EPOCH   = 70734
BSTAR          = -.37178E-5
MEAN_MOTION_DOT = -.55E-6
MEAN_MOTION_DDOT = 0

CCSDS_OMM_VERS = 2.0
CREATION_DATE  = 
ORIGINATOR     = 

OBJECT_NAME    = COSMOS 2228
OBJECT_ID      = 1992-094A
CENTER_NAME    = EARTH
REF_FRAME      = TEME
TIME_SYSTEM    = UTC
MEAN_ELEMENT_THEORY = SGP/SGP4

EPOCH          = 2026-01-27T17:58:32.500128
MEAN_MOTION    = 14.96994852
ECCENTRICITY   = .0019634
INCLINATION    = 82.5175
RA_OF_ASC_NODE = 276.5110
ARG_OF_PERICENTER = 80.1365
MEAN_ANOMALY   = 280.2073

EPHEMERIS_TYPE = 0
CLASSIFICATION_TYPE = U
NORAD_CAT_ID   = 22286
ELEMENT_SET_NO = 999
REV_AT_EPOCH   = 76993
BSTAR          = .31148E-3
MEAN_MOTION_DOT = .3622E-4
MEAN_MOTION_DDOT = 0

